STARLINK-4658           
1 53612U 22104AA  26177.12255891 -.00000828  00000+0 -33946-4 0  9990
2 53612  53.1599 107.2722 0001378  86.1493 273.9656 15.08825031212008
STARLINK-4615           
1 53620U 22104AJ  26176.96796900  .00002214  00000+0  15717-3 0  9995
2 53620  53.1611 107.7332 0001381  82.1101 278.0047 15.08836593212094
STARLINK-4568           
1 53622U 22104AL  26177.07833118  .00000288  00000+0  36220-4 0  9995
2 53622  53.1605 107.0032 0001462  85.6820 274.4339 15.08839239212112
STARLINK-4595           
1 53627U 22104AR  26177.08938787 -.00000226  00000+0  39256-5 0  9995
2 53627  53.1606 107.0664 0001428  87.7026 272.4129 15.08833615212120
STARLINK-4600           
1 53628U 22104AS  26177.07464289 -.00000260  00000+0  17779-5 0  9990
2 53628  53.1607 106.9774 0001407  88.3579 271.7574 15.08844816212120
STARLINK-4599           
1 53631U 22104AV  26177.07096167  .00001113  00000+0  87999-4 0  9997
2 53631  53.1602 106.9574 0001332  87.3049 272.8095 15.08840847212125
