{
  "schema": "int-temerity-real-tle-snapshot/v1",
  "source": "celestrak",
  "group": "STARLINK",
  "format": "celestrak-gp-json",
  "source_url": "https://celestrak.org/NORAD/elements/gp.php?NAME=STARLINK&FORMAT=JSON",
  "downloaded_at": "2026-07-01T09:46:17.455Z",
  "generated_at": "2026-07-01T09:46:17.588Z",
  "fingerprint": "ee699b79",
  "shell_id": "starlink-real-53.2deg-545km",
  "catalog_count": 10658,
  "shell_count": 1056,
  "selected_count": 658,
  "mean_altitude_km": 545.46,
  "mean_inclination_deg": 53.1605,
  "mean_mean_motion_rev_per_day": 15.09305652,
  "layout": {
    "planes": 47,
    "satellites_per_plane": 14,
    "selection_strategy": "target-shell-raan-clusters-even-slot-sampling",
    "raan_cluster_threshold_deg": 1.5,
    "target_inclination_deg": 53,
    "target_altitude_km": 550,
    "selected_shell_key": "53.0deg-550km",
    "target_shell_distance": 21.03
  },
  "satellites": [
    {
      "satellite_id": "P17-S05",
      "norad_id": 53631,
      "satellite_name": "STARLINK-4599",
      "cospar_id": "2022-104AV",
      "shell_id": "starlink-real-53.2deg-545km",
      "plane_id": 16,
      "slot_id": 4,
      "epoch": "2026-06-26T01:42:11.088288",
      "inclination": 53.1602,
      "raan": 106.9574,
      "eccentricity": 0.0001332,
      "argument_of_perigee": 87.30489999999998,
      "mean_anomaly": 272.80950000000007,
      "mean_motion": 15.08840847,
      "bstar": 0.000087999,
      "status": "active",
      "raw_omm": {
        "OBJECT_NAME": "STARLINK-4599",
        "OBJECT_ID": "2022-104AV",
        "EPOCH": "2026-06-26T01:42:11.088288",
        "MEAN_MOTION": 15.08840847,
        "ECCENTRICITY": 0.0001332,
        "INCLINATION": 53.1602,
        "RA_OF_ASC_NODE": 106.9574,
        "ARG_OF_PERICENTER": 87.3049,
        "MEAN_ANOMALY": 272.8095,
        "EPHEMERIS_TYPE": 0,
        "CLASSIFICATION_TYPE": "U",
        "NORAD_CAT_ID": 53631,
        "ELEMENT_SET_NO": 999,
        "REV_AT_EPOCH": 21212,
        "BSTAR": 0.000087999,
        "MEAN_MOTION_DOT": 0.00001113,
        "MEAN_MOTION_DDOT": 0
      },
      "source": "celestrak",
      "source_url": "https://celestrak.org/NORAD/elements/gp.php?NAME=STARLINK&FORMAT=JSON",
      "catalog_fingerprint": "ee699b79"
    },
    {
      "satellite_id": "P17-S06",
      "norad_id": 53620,
      "satellite_name": "STARLINK-4615",
      "cospar_id": "2022-104AJ",
      "shell_id": "starlink-real-53.2deg-545km",
      "plane_id": 16,
      "slot_id": 5,
      "epoch": "2026-06-25T23:13:52.521600",
      "inclination": 53.1611,
      "raan": 107.73320000000001,
      "eccentricity": 0.0001381,
      "argument_of_perigee": 82.11009999999999,
      "mean_anomaly": 278.00469999999996,
      "mean_motion": 15.08836593,
      "bstar": 0.00015717,
      "status": "active",
      "raw_omm": {
        "OBJECT_NAME": "STARLINK-4615",
        "OBJECT_ID": "2022-104AJ",
        "EPOCH": "2026-06-25T23:13:52.521600",
        "MEAN_MOTION": 15.08836593,
        "ECCENTRICITY": 0.0001381,
        "INCLINATION": 53.1611,
        "RA_OF_ASC_NODE": 107.7332,
        "ARG_OF_PERICENTER": 82.1101,
        "MEAN_ANOMALY": 278.0047,
        "EPHEMERIS_TYPE": 0,
        "CLASSIFICATION_TYPE": "U",
        "NORAD_CAT_ID": 53620,
        "ELEMENT_SET_NO": 999,
        "REV_AT_EPOCH": 21209,
        "BSTAR": 0.00015717,
        "MEAN_MOTION_DOT": 0.00002214,
        "MEAN_MOTION_DDOT": 0
      },
      "source": "celestrak",
      "source_url": "https://celestrak.org/NORAD/elements/gp.php?NAME=STARLINK&FORMAT=JSON",
      "catalog_fingerprint": "ee699b79"
    },
    {
      "satellite_id": "P17-S07",
      "norad_id": 53612,
      "satellite_name": "STARLINK-4658",
      "cospar_id": "2022-104AA",
      "shell_id": "starlink-real-53.2deg-545km",
      "plane_id": 16,
      "slot_id": 6,
      "epoch": "2026-06-26T02:56:29.089824",
      "inclination": 53.1599,
      "raan": 107.2722,
      "eccentricity": 0.0001378,
      "argument_of_perigee": 86.14929999999998,
      "mean_anomaly": 273.9656,
      "mean_motion": 15.08825031,
      "bstar": -0.000033946,
      "status": "active",
      "raw_omm": {
        "OBJECT_NAME": "STARLINK-4658",
        "OBJECT_ID": "2022-104AA",
        "EPOCH": "2026-06-26T02:56:29.089824",
        "MEAN_MOTION": 15.08825031,
        "ECCENTRICITY": 0.0001378,
        "INCLINATION": 53.1599,
        "RA_OF_ASC_NODE": 107.2722,
        "ARG_OF_PERICENTER": 86.1493,
        "MEAN_ANOMALY": 273.9656,
        "EPHEMERIS_TYPE": 0,
        "CLASSIFICATION_TYPE": "U",
        "NORAD_CAT_ID": 53612,
        "ELEMENT_SET_NO": 999,
        "REV_AT_EPOCH": 21200,
        "BSTAR": -0.000033946,
        "MEAN_MOTION_DOT": -0.00000828,
        "MEAN_MOTION_DDOT": 0
      },
      "source": "celestrak",
      "source_url": "https://celestrak.org/NORAD/elements/gp.php?NAME=STARLINK&FORMAT=JSON",
      "catalog_fingerprint": "ee699b79"
    },
    {
      "satellite_id": "P17-S08",
      "norad_id": 53628,
      "satellite_name": "STARLINK-4600",
      "cospar_id": "2022-104AS",
      "shell_id": "starlink-real-53.2deg-545km",
      "plane_id": 16,
      "slot_id": 7,
      "epoch": "2026-06-26T01:47:29.145696",
      "inclination": 53.1607,
      "raan": 106.97739999999999,
      "eccentricity": 0.0001407,
      "argument_of_perigee": 88.35789999999997,
      "mean_anomaly": 271.75739999999996,
      "mean_motion": 15.08844816,
      "bstar": 0.0000017779,
      "status": "active",
      "raw_omm": {
        "OBJECT_NAME": "STARLINK-4600",
        "OBJECT_ID": "2022-104AS",
        "EPOCH": "2026-06-26T01:47:29.145696",
        "MEAN_MOTION": 15.08844816,
        "ECCENTRICITY": 0.0001407,
        "INCLINATION": 53.1607,
        "RA_OF_ASC_NODE": 106.9774,
        "ARG_OF_PERICENTER": 88.3579,
        "MEAN_ANOMALY": 271.7574,
        "EPHEMERIS_TYPE": 0,
        "CLASSIFICATION_TYPE": "U",
        "NORAD_CAT_ID": 53628,
        "ELEMENT_SET_NO": 999,
        "REV_AT_EPOCH": 21212,
        "BSTAR": 0.0000017779,
        "MEAN_MOTION_DOT": -0.0000026,
        "MEAN_MOTION_DDOT": 0
      },
      "source": "celestrak",
      "source_url": "https://celestrak.org/NORAD/elements/gp.php?NAME=STARLINK&FORMAT=JSON",
      "catalog_fingerprint": "ee699b79"
    },
    {
      "satellite_id": "P17-S09",
      "norad_id": 53627,
      "satellite_name": "STARLINK-4595",
      "cospar_id": "2022-104AR",
      "shell_id": "starlink-real-53.2deg-545km",
      "plane_id": 16,
      "slot_id": 8,
      "epoch": "2026-06-26T02:08:43.111968",
      "inclination": 53.1606,
      "raan": 107.06639999999999,
      "eccentricity": 0.0001428,
      "argument_of_perigee": 87.70260000000002,
      "mean_anomaly": 272.41290000000004,
      "mean_motion": 15.08833615,
      "bstar": 0.0000039256,
      "status": "active",
      "raw_omm": {
        "OBJECT_NAME": "STARLINK-4595",
        "OBJECT_ID": "2022-104AR",
        "EPOCH": "2026-06-26T02:08:43.111968",
        "MEAN_MOTION": 15.08833615,
        "ECCENTRICITY": 0.0001428,
        "INCLINATION": 53.1606,
        "RA_OF_ASC_NODE": 107.0664,
        "ARG_OF_PERICENTER": 87.7026,
        "MEAN_ANOMALY": 272.4129,
        "EPHEMERIS_TYPE": 0,
        "CLASSIFICATION_TYPE": "U",
        "NORAD_CAT_ID": 53627,
        "ELEMENT_SET_NO": 999,
        "REV_AT_EPOCH": 21212,
        "BSTAR": 0.0000039256,
        "MEAN_MOTION_DOT": -0.00000226,
        "MEAN_MOTION_DDOT": 0
      },
      "source": "celestrak",
      "source_url": "https://celestrak.org/NORAD/elements/gp.php?NAME=STARLINK&FORMAT=JSON",
      "catalog_fingerprint": "ee699b79"
    },
    {
      "satellite_id": "P17-S10",
      "norad_id": 53622,
      "satellite_name": "STARLINK-4568",
      "cospar_id": "2022-104AL",
      "shell_id": "starlink-real-53.2deg-545km",
      "plane_id": 16,
      "slot_id": 9,
      "epoch": "2026-06-26T01:52:47.813952",
      "inclination": 53.1605,
      "raan": 107.00319999999999,
      "eccentricity": 0.0001462,
      "argument_of_perigee": 85.68200000000002,
      "mean_anomaly": 274.4339,
      "mean_motion": 15.08839239,
      "bstar": 0.00003622,
      "status": "active",
      "raw_omm": {
        "OBJECT_NAME": "STARLINK-4568",
        "OBJECT_ID": "2022-104AL",
        "EPOCH": "2026-06-26T01:52:47.813952",
        "MEAN_MOTION": 15.08839239,
        "ECCENTRICITY": 0.0001462,
        "INCLINATION": 53.1605,
        "RA_OF_ASC_NODE": 107.0032,
        "ARG_OF_PERICENTER": 85.682,
        "MEAN_ANOMALY": 274.4339,
        "EPHEMERIS_TYPE": 0,
        "CLASSIFICATION_TYPE": "U",
        "NORAD_CAT_ID": 53622,
        "ELEMENT_SET_NO": 999,
        "REV_AT_EPOCH": 21211,
        "BSTAR": 0.00003622,
        "MEAN_MOTION_DOT": 0.00000288,
        "MEAN_MOTION_DDOT": 0
      },
      "source": "celestrak",
      "source_url": "https://celestrak.org/NORAD/elements/gp.php?NAME=STARLINK&FORMAT=JSON",
      "catalog_fingerprint": "ee699b79"
    }
  ]
}